     2.10           G: GLONASS NAV DATA                     RINEX VERSION / TYPE
teqc  2015Jun23                         20210922 01:26:17UTCPGM / RUN BY / DATE
Linux 2.4.21-27.ELsmp|Opteron|gcc -static|Linux x86_64|=+   COMMENT
  2021     8    29   -9.313225746155D-10                    CORR TO SYSTEM TIME
                                                            END OF HEADER
 8 21  8 30  0 15  0.0-6.066169589758D-05-0.000000000000D+00 0.000000000000D+00
   -1.715848095703D+04-1.191550254822D+00 0.000000000000D+00 0.000000000000D+00
    1.561142773438D+04 8.516006469727D-01-0.000000000000D+00 6.000000000000D+00
   -1.058327099609D+04 3.170361518860D+00 1.862645149231D-09 0.000000000000D+00
23 21  8 30  0 15  0.0-1.246668398380D-05-0.000000000000D+00 0.000000000000D+00
    1.374736523438D+04-1.609728813171D+00 0.000000000000D+00 0.000000000000D+00
    1.582312792969D+04-1.194547653198D+00 2.793967723846D-09 3.000000000000D+00
    1.453008447266D+04 2.820684432983D+00-0.000000000000D+00 0.000000000000D+00
 1 21  8 30  0 15  0.0 8.459482342005D-05 0.000000000000D+00 0.000000000000D+00
   -3.419583007812D+03-2.443037986755D+00 0.000000000000D+00 0.000000000000D+00
    1.392053857422D+04 1.540973663330D+00-0.000000000000D+00 1.000000000000D+00
   -2.109861767578D+04 1.413945198059D+00 2.793967723846D-09 0.000000000000D+00
 7 21  8 30  0 15  0.0-4.146993160248D-05 0.000000000000D+00 0.000000000000D+00
   -2.281836962891D+04 7.749338150024D-01 0.000000000000D+00 0.000000000000D+00
    9.849358886719D+03-2.556028366089D-01 0.000000000000D+00 5.000000000000D+00
    5.881814453125D+03 3.449726104736D+00 0.000000000000D+00 0.000000000000D+00
12 21  8 30  0 15  0.0 2.577407285571D-04 3.637978807092D-12 0.000000000000D+00
    2.538151855469D+03 1.567363739014D-01 0.000000000000D+00 0.000000000000D+00
    2.486715332031D+04 7.007379531860D-01 1.862645149231D-09-1.000000000000D+00
    5.158859863281D+03-3.475618362427D+00 9.313225746155D-10 0.000000000000D+00
 8 21  8 30  0 45  0.0-6.066169589758D-05-0.000000000000D+00 1.800000000000D+03
   -1.858567333984D+04-4.013366699219D-01 0.000000000000D+00 0.000000000000D+00
    1.687520361328D+04 5.109786987305D-01 0.000000000000D+00 6.000000000000D+00
   -4.540914550781D+03 3.499665260315D+00 9.313225746155D-10 0.000000000000D+00
23 21  8 30  0 45  0.0-1.246761530638D-05-0.000000000000D+00 1.800000000000D+03
    1.018036572266D+04-2.332508087158D+00 0.000000000000D+00 0.000000000000D+00
    1.365500830078D+04-1.170580863953D+00 2.793967723846D-09 3.000000000000D+00
    1.897967529297D+04 2.091153144836D+00-0.000000000000D+00 0.000000000000D+00
 1 21  8 30  0 45  0.0 8.459575474262D-05 0.000000000000D+00 1.800000000000D+03
   -7.298639648438D+03-1.843039512634D+00 0.000000000000D+00 0.000000000000D+00
    1.677691894531D+04 1.590354919434D+00-0.000000000000D+00 1.000000000000D+00
   -1.777072216797D+04 2.259748458862D+00 1.862645149231D-09 0.000000000000D+00
 7 21  8 30  0 45  0.0-4.146900027990D-05 0.000000000000D+00 1.800000000000D+03
   -2.085806787109D+04 1.365675926208D+00 0.000000000000D+00 0.000000000000D+00
    8.865584472656D+03-8.578596115112D-01 0.000000000000D+00 5.000000000000D+00
    1.178488476562D+04 3.066859245300D+00-0.000000000000D+00 0.000000000000D+00
12 21  8 30  0 45  0.0 2.577463164926D-04 3.637978807092D-12 1.800000000000D+03
    2.836099121094D+03 1.335020065308D-01 9.313225746155D-10 0.000000000000D+00
    2.532782226562D+04-1.906251907349D-01 1.862645149231D-09-1.000000000000D+00
   -1.215694335938D+03-3.561292648315D+00 1.862645149231D-09 0.000000000000D+00
13 21  8 30  0 45  0.0-5.985982716084D-05-0.000000000000D+00 1.830000000000D+03
    9.836339843750D+03 4.088735580444D-01 9.313225746155D-10 0.000000000000D+00
    1.826504296875D+04 1.994189262390D+00 2.793967723846D-09-2.000000000000D+00
    1.483190332031D+04-2.725775718689D+00 0.000000000000D+00 0.000000000000D+00
 8 21  8 30  1 15  0.0-6.066169589758D-05-0.000000000000D+00 3.600000000000D+03
   -1.866167431641D+04 2.922525405884D-01 0.000000000000D+00 0.000000000000D+00
    1.731467236328D+04-5.540180206299D-02 0.000000000000D+00 6.000000000000D+00
    1.852599609375D+03 3.558139801025D+00 0.000000000000D+00 0.000000000000D+00
13 21  8 30  1 15  0.0-5.986075848341D-05-0.000000000000D+00 3.600000000000D+03
    1.067728613281D+04 4.860811233521D-01 9.313225746155D-10 0.000000000000D+00
    2.116069091797D+04 1.203526496887D+00 1.862645149231D-09-2.000000000000D+00
    9.415145996094D+03-3.253727912903D+00 9.313225746155D-10 0.000000000000D+00
 1 21  8 30  1 15  0.0 8.459668606520D-05 0.000000000000D+00 3.600000000000D+03
   -1.000052099609D+04-1.153385162354D+00 0.000000000000D+00 0.000000000000D+00
    1.948476074219D+04 1.372819900513D+00-0.000000000000D+00 1.000000000000D+00
   -1.306851074219D+04 2.931025505066D+00 1.862645149231D-09 0.000000000000D+00
 7 21  8 30  1 15  0.0-4.146713763475D-05 0.000000000000D+00 3.600000000000D+03
   -1.805350683594D+04 1.705232620239D+00 0.000000000000D+00 0.000000000000D+00
    6.718200683594D+03-1.531002998352D+00 0.000000000000D+00 5.000000000000D+00
    1.678061572266D+04 2.448106765747D+00-9.313225746155D-10 0.000000000000D+00
12 21  8 30  1 15  0.0 2.577519044280D-04 2.728484105319D-12 3.600000000000D+03
    2.875524414062D+03-1.269569396973D-01 9.313225746155D-10 0.000000000000D+00
    2.420983300781D+04-1.034045219421D+00 9.313225746155D-10-1.000000000000D+00
   -7.496225097656D+03-3.371736526489D+00 1.862645149231D-09 0.000000000000D+00
23 21  8 30  1 15  0.0-1.246947795153D-05-0.000000000000D+00 3.720000000000D+03
    5.458355957031D+03-2.876110076904D+00 9.313225746155D-10 0.000000000000D+00
    1.175270898438D+04-9.085407257080D-01 1.862645149231D-09 3.000000000000D+00
    2.196079638672D+04 1.199647903442D+00-9.313225746155D-10 0.000000000000D+00
 8 21  8 30  1 45  0.0-6.066169589758D-05 0.000000000000D+00 5.400000000000D+03
   -1.764748876953D+04 7.971401214600D-01 0.000000000000D+00 0.000000000000D+00
    1.658291015625D+04-7.755517959595D-01 0.000000000000D+00 6.000000000000D+00
    8.103243652344D+03 3.342082977295D+00-0.000000000000D+00 0.000000000000D+00
13 21  8 30  1 45  0.0-5.986168980598D-05-0.000000000000D+00 5.400000000000D+03
    1.143758398438D+04 3.170566558838D-01 9.313225746155D-10 0.000000000000D+00
    2.256111425781D+04 3.520631790161D-01 1.862645149231D-09-2.000000000000D+00
    3.269944824219D+03-3.529902458191D+00 1.862645149231D-09 0.000000000000D+00
 1 21  8 30  1 45  0.0 8.459761738777D-05 0.000000000000D+00 5.400000000000D+03
   -1.146421533203D+04-4.857664108276D-01 0.000000000000D+00 0.000000000000D+00
    2.156055126953D+04 8.925962448120D-01-0.000000000000D+00 1.000000000000D+00
   -7.355339843750D+03 3.375712394714D+00 1.862645149231D-09 0.000000000000D+00
12 21  8 30  1 45  0.0 2.577574923635D-04 2.728484105319D-12 5.400000000000D+03
    2.261601562500D+03-5.819072723389D-01 0.000000000000D+00 0.000000000000D+00
    2.169948046875D+04-1.721293449402D+00-0.000000000000D+00-1.000000000000D+00
   -1.319688623047D+04-2.921098709106D+00 2.793967723846D-09 0.000000000000D+00
 2 21  8 30  1 45  0.0 4.914728924632D-04 9.094947017729D-13 5.580000000000D+03
    3.006452636719D+03-1.794673919678D+00 0.000000000000D+00 0.000000000000D+00
    1.285616210938D+04 2.397113800049D+00-9.313225746155D-10-4.000000000000D+00
   -2.179971826172D+04 1.158414840698D+00 2.793967723846D-09 0.000000000000D+00
 8 21  8 30  2 15  0.0-6.066169589758D-05 0.000000000000D+00 7.200000000000D+03
   -1.594061865234D+04 1.055750846863D+00 0.000000000000D+00 0.000000000000D+00
    1.449061865234D+04-1.548726081848D+00 0.000000000000D+00 6.000000000000D+00
    1.372940869141D+04 2.868867874146D+00-9.313225746155D-10 0.000000000000D+00
 2 21  8 30  2 15  0.0 4.914756864309D-04 9.094947017729D-13 7.200000000000D+03
    2.785429687500D+02-1.225701332092D+00 0.000000000000D+00 0.000000000000D+00
    1.711757617188D+04 2.288963317871D+00-0.000000000000D+00-4.000000000000D+00
   -1.889717480469D+04 2.045450210571D+00 2.793967723846D-09 0.000000000000D+00
 1 21  8 30  2 15  0.0 8.459854871035D-05 0.000000000000D+00 7.200000000000D+03
   -1.182508593750D+04 5.636882781982D-02 0.000000000000D+00 0.000000000000D+00
    2.256892138672D+04 1.983203887939D-01 0.000000000000D+00 1.000000000000D+00
   -1.073039062500D+03 3.559260368347D+00 9.313225746155D-10 0.000000000000D+00
12 21  8 30  2 15  0.0 2.577621489763D-04 2.728484105319D-12 7.200000000000D+03
    7.113735351562D+02-1.151520729065D+00 0.000000000000D+00 0.000000000000D+00
    1.815734179688D+04-2.169577598572D+00-0.000000000000D+00-1.000000000000D+00
   -1.787585498047D+04-2.243848800659D+00 2.793967723846D-09 0.000000000000D+00
13 21  8 30  2 15  0.0-5.986355245113D-05-0.000000000000D+00 7.200000000000D+03
    1.167576562500D+04-8.870220184326D-02 9.313225746155D-10 0.000000000000D+00
    2.246117919922D+04-4.446935653687D-01 9.313225746155D-10-2.000000000000D+00
   -3.128221191406D+03-3.532988548279D+00 1.862645149231D-09 0.000000000000D+00
14 21  8 30  2 15  0.0 6.821658462286D-05 0.000000000000D+00 8.370000000000D+03
    1.604574560547D+04 1.098123550415D+00 1.862645149231D-09 0.000000000000D+00
    1.346685693359D+04 1.663084030151D+00 1.862645149231D-09-7.000000000000D+00
    1.456008300781D+04-2.753635406494D+00 0.000000000000D+00 0.000000000000D+00
 8 21  8 30  2 45  0.0-6.066076457500D-05 0.000000000000D+00 9.000000000000D+03
   -1.400404345703D+04 1.053789138794D+00 0.000000000000D+00 0.000000000000D+00
    1.104370654297D+04-2.261752128601D+00 0.000000000000D+00 6.000000000000D+00
    1.829867822266D+04 2.175394058228D+00-9.313225746155D-10 0.000000000000D+00
 2 21  8 30  2 45  0.0 4.914775490761D-04 9.094947017729D-13 9.000000000000D+03
   -1.401523437500D+03-6.490364074707D-01 0.000000000000D+00 0.000000000000D+00
    2.092201513672D+04 1.891689300537D+00-0.000000000000D+00-4.000000000000D+00
   -1.453202539062D+04 2.773036956787D+00 1.862645149231D-09 0.000000000000D+00
